<?xml version="1.0" encoding="UTF-8"?>
<ndm xmlns:xsi="http://www.w3.org/2001/XMLSchema-instance" xsi:noNamespaceSchemaLocation="https://sanaregistry.org/r/ndmxml_unqualified/ndmxml-2.0.0-master-2.0.xsd">
<omm id="CCSDS_OMM_VERS" version="2.0">
<header><CREATION_DATE/><ORIGINATOR/></header><body><segment><metadata><OBJECT_NAME>ORBCOMM FM24 [-]</OBJECT_NAME><OBJECT_ID>1998-053D</OBJECT_ID><CENTER_NAME>EARTH</CENTER_NAME><REF_FRAME>TEME</REF_FRAME><TIME_SYSTEM>UTC</TIME_SYSTEM><MEAN_ELEMENT_THEORY>SGP4</MEAN_ELEMENT_THEORY></metadata><data><meanElements><EPOCH>2024-01-22T11:43:47.833248</EPOCH><MEAN_MOTION>14.35148048</MEAN_MOTION><ECCENTRICITY>.0002362</ECCENTRICITY><INCLINATION>45.0064</INCLINATION><RA_OF_ASC_NODE>169.4385</RA_OF_ASC_NODE><ARG_OF_PERICENTER>188.4364</ARG_OF_PERICENTER><MEAN_ANOMALY>171.6443</MEAN_ANOMALY></meanElements><tleParameters><EPHEMERIS_TYPE>0</EPHEMERIS_TYPE><CLASSIFICATION_TYPE>U</CLASSIFICATION_TYPE><NORAD_CAT_ID>25478</NORAD_CAT_ID><ELEMENT_SET_NO>999</ELEMENT_SET_NO><REV_AT_EPOCH>32386</REV_AT_EPOCH><BSTAR>.81239E-3</BSTAR><MEAN_MOTION_DOT>.2201E-4</MEAN_MOTION_DOT><MEAN_MOTION_DDOT>0</MEAN_MOTION_DDOT></tleParameters></data></segment></body></omm>
<omm id="CCSDS_OMM_VERS" version="2.0">
<header><CREATION_DATE/><ORIGINATOR/></header><body><segment><metadata><OBJECT_NAME>ORBCOMM FM25 [-]</OBJECT_NAME><OBJECT_ID>1998-053E</OBJECT_ID><CENTER_NAME>EARTH</CENTER_NAME><REF_FRAME>TEME</REF_FRAME><TIME_SYSTEM>UTC</TIME_SYSTEM><MEAN_ELEMENT_THEORY>SGP4</MEAN_ELEMENT_THEORY></metadata><data><meanElements><EPOCH>2024-01-22T12:33:36.093888</EPOCH><MEAN_MOTION>14.35132646</MEAN_MOTION><ECCENTRICITY>.0004846</ECCENTRICITY><INCLINATION>45.0058</INCLINATION><RA_OF_ASC_NODE>167.5142</RA_OF_ASC_NODE><ARG_OF_PERICENTER>203.2792</ARG_OF_PERICENTER><MEAN_ANOMALY>156.7836</MEAN_ANOMALY></meanElements><tleParameters><EPHEMERIS_TYPE>0</EPHEMERIS_TYPE><CLASSIFICATION_TYPE>U</CLASSIFICATION_TYPE><NORAD_CAT_ID>25479</NORAD_CAT_ID><ELEMENT_SET_NO>999</ELEMENT_SET_NO><REV_AT_EPOCH>32416</REV_AT_EPOCH><BSTAR>.86793E-3</BSTAR><MEAN_MOTION_DOT>.2361E-4</MEAN_MOTION_DOT><MEAN_MOTION_DDOT>0</MEAN_MOTION_DDOT></tleParameters></data></segment></body></omm>
<omm id="CCSDS_OMM_VERS" version="2.0">
<header><CREATION_DATE/><ORIGINATOR/></header><body><segment><metadata><OBJECT_NAME>ORBCOMM FM26 [-]</OBJECT_NAME><OBJECT_ID>1998-053F</OBJECT_ID><CENTER_NAME>EARTH</CENTER_NAME><REF_FRAME>TEME</REF_FRAME><TIME_SYSTEM>UTC</TIME_SYSTEM><MEAN_ELEMENT_THEORY>SGP4</MEAN_ELEMENT_THEORY></metadata><data><meanElements><EPOCH>2024-01-22T11:46:15.525408</EPOCH><MEAN_MOTION>14.34651402</MEAN_MOTION><ECCENTRICITY>.0006805</ECCENTRICITY><INCLINATION>45.0050</INCLINATION><RA_OF_ASC_NODE>161.3578</RA_OF_ASC_NODE><ARG_OF_PERICENTER>221.1884</ARG_OF_PERICENTER><MEAN_ANOMALY>138.8450</MEAN_ANOMALY></meanElements><tleParameters><EPHEMERIS_TYPE>0</EPHEMERIS_TYPE><CLASSIFICATION_TYPE>U</CLASSIFICATION_TYPE><NORAD_CAT_ID>25480</NORAD_CAT_ID><ELEMENT_SET_NO>999</ELEMENT_SET_NO><REV_AT_EPOCH>32410</REV_AT_EPOCH><BSTAR>.80443E-3</BSTAR><MEAN_MOTION_DOT>.2156E-4</MEAN_MOTION_DOT><MEAN_MOTION_DDOT>0</MEAN_MOTION_DDOT></tleParameters></data></segment></body></omm>
<omm id="CCSDS_OMM_VERS" version="2.0">
<header><CREATION_DATE/><ORIGINATOR/></header><body><segment><metadata><OBJECT_NAME>ORBCOMM FM27 [+]</OBJECT_NAME><OBJECT_ID>1998-053G</OBJECT_ID><CENTER_NAME>EARTH</CENTER_NAME><REF_FRAME>TEME</REF_FRAME><TIME_SYSTEM>UTC</TIME_SYSTEM><MEAN_ELEMENT_THEORY>SGP4</MEAN_ELEMENT_THEORY></metadata><data><meanElements><EPOCH>2024-01-22T12:14:07.501056</EPOCH><MEAN_MOTION>14.35108005</MEAN_MOTION><ECCENTRICITY>.0000779</ECCENTRICITY><INCLINATION>45.0040</INCLINATION><RA_OF_ASC_NODE>167.8390</RA_OF_ASC_NODE><ARG_OF_PERICENTER>204.3885</ARG_OF_PERICENTER><MEAN_ANOMALY>155.6925</MEAN_ANOMALY></meanElements><tleParameters><EPHEMERIS_TYPE>0</EPHEMERIS_TYPE><CLASSIFICATION_TYPE>U</CLASSIFICATION_TYPE><NORAD_CAT_ID>25481</NORAD_CAT_ID><ELEMENT_SET_NO>999</ELEMENT_SET_NO><REV_AT_EPOCH>32409</REV_AT_EPOCH><BSTAR>.83574E-3</BSTAR><MEAN_MOTION_DOT>.2266E-4</MEAN_MOTION_DOT><MEAN_MOTION_DDOT>0</MEAN_MOTION_DDOT></tleParameters></data></segment></body></omm>
<omm id="CCSDS_OMM_VERS" version="2.0">
<header><CREATION_DATE/><ORIGINATOR/></header><body><segment><metadata><OBJECT_NAME>ORBCOMM FM28 [-]</OBJECT_NAME><OBJECT_ID>1998-053H</OBJECT_ID><CENTER_NAME>EARTH</CENTER_NAME><REF_FRAME>TEME</REF_FRAME><TIME_SYSTEM>UTC</TIME_SYSTEM><MEAN_ELEMENT_THEORY>SGP4</MEAN_ELEMENT_THEORY></metadata><data><meanElements><EPOCH>2024-01-23T23:48:50.445792</EPOCH><MEAN_MOTION>14.35587222</MEAN_MOTION><ECCENTRICITY>.0005755</ECCENTRICITY><INCLINATION>45.0060</INCLINATION><RA_OF_ASC_NODE>99.6844</RA_OF_ASC_NODE><ARG_OF_PERICENTER>255.4464</ARG_OF_PERICENTER><MEAN_ANOMALY>104.5745</MEAN_ANOMALY></meanElements><tleParameters><EPHEMERIS_TYPE>0</EPHEMERIS_TYPE><CLASSIFICATION_TYPE>U</CLASSIFICATION_TYPE><NORAD_CAT_ID>25482</NORAD_CAT_ID><ELEMENT_SET_NO>999</ELEMENT_SET_NO><REV_AT_EPOCH>32514</REV_AT_EPOCH><BSTAR>.7204E-3</BSTAR><MEAN_MOTION_DOT>.1954E-4</MEAN_MOTION_DOT><MEAN_MOTION_DDOT>0</MEAN_MOTION_DDOT></tleParameters></data></segment></body></omm>
<omm id="CCSDS_OMM_VERS" version="2.0">
<header><CREATION_DATE/><ORIGINATOR/></header><body><segment><metadata><OBJECT_NAME>ORBCOMM FM30 [-]</OBJECT_NAME><OBJECT_ID>1999-065A</OBJECT_ID><CENTER_NAME>EARTH</CENTER_NAME><REF_FRAME>TEME</REF_FRAME><TIME_SYSTEM>UTC</TIME_SYSTEM><MEAN_ELEMENT_THEORY>SGP4</MEAN_ELEMENT_THEORY></metadata><data><meanElements><EPOCH>2024-01-23T22:12:19.594656</EPOCH><MEAN_MOTION>14.34802291</MEAN_MOTION><ECCENTRICITY>.0007664</ECCENTRICITY><INCLINATION>45.0334</INCLINATION><RA_OF_ASC_NODE>340.0209</RA_OF_ASC_NODE><ARG_OF_PERICENTER>329.1464</ARG_OF_PERICENTER><MEAN_ANOMALY>30.8932</MEAN_ANOMALY></meanElements><tleParameters><EPHEMERIS_TYPE>0</EPHEMERIS_TYPE><CLASSIFICATION_TYPE>U</CLASSIFICATION_TYPE><NORAD_CAT_ID>25980</NORAD_CAT_ID><ELEMENT_SET_NO>999</ELEMENT_SET_NO><REV_AT_EPOCH>26163</REV_AT_EPOCH><BSTAR>.7676E-3</BSTAR><MEAN_MOTION_DOT>.2057E-4</MEAN_MOTION_DOT><MEAN_MOTION_DDOT>0</MEAN_MOTION_DDOT></tleParameters></data></segment></body></omm>
<omm id="CCSDS_OMM_VERS" version="2.0">
<header><CREATION_DATE/><ORIGINATOR/></header><body><segment><metadata><OBJECT_NAME>ORBCOMM FM31 [-]</OBJECT_NAME><OBJECT_ID>1999-065B</OBJECT_ID><CENTER_NAME>EARTH</CENTER_NAME><REF_FRAME>TEME</REF_FRAME><TIME_SYSTEM>UTC</TIME_SYSTEM><MEAN_ELEMENT_THEORY>SGP4</MEAN_ELEMENT_THEORY></metadata><data><meanElements><EPOCH>2024-01-24T02:24:26.110080</EPOCH><MEAN_MOTION>14.34815514</MEAN_MOTION><ECCENTRICITY>.0004526</ECCENTRICITY><INCLINATION>45.0245</INCLINATION><RA_OF_ASC_NODE>332.9714</RA_OF_ASC_NODE><ARG_OF_PERICENTER>345.2951</ARG_OF_PERICENTER><MEAN_ANOMALY>14.7764</MEAN_ANOMALY></meanElements><tleParameters><EPHEMERIS_TYPE>0</EPHEMERIS_TYPE><CLASSIFICATION_TYPE>U</CLASSIFICATION_TYPE><NORAD_CAT_ID>25981</NORAD_CAT_ID><ELEMENT_SET_NO>999</ELEMENT_SET_NO><REV_AT_EPOCH>26165</REV_AT_EPOCH><BSTAR>.72194E-3</BSTAR><MEAN_MOTION_DOT>.1926E-4</MEAN_MOTION_DOT><MEAN_MOTION_DDOT>0</MEAN_MOTION_DDOT></tleParameters></data></segment></body></omm>
<omm id="CCSDS_OMM_VERS" version="2.0">
<header><CREATION_DATE/><ORIGINATOR/></header><body><segment><metadata><OBJECT_NAME>ORBCOMM FM32 [+]</OBJECT_NAME><OBJECT_ID>1999-065C</OBJECT_ID><CENTER_NAME>EARTH</CENTER_NAME><REF_FRAME>TEME</REF_FRAME><TIME_SYSTEM>UTC</TIME_SYSTEM><MEAN_ELEMENT_THEORY>SGP4</MEAN_ELEMENT_THEORY></metadata><data><meanElements><EPOCH>2024-01-23T22:26:22.009344</EPOCH><MEAN_MOTION>14.33790484</MEAN_MOTION><ECCENTRICITY>.0006784</ECCENTRICITY><INCLINATION>45.0177</INCLINATION><RA_OF_ASC_NODE>346.7726</RA_OF_ASC_NODE><ARG_OF_PERICENTER>348.2910</ARG_OF_PERICENTER><MEAN_ANOMALY>11.7778</MEAN_ANOMALY></meanElements><tleParameters><EPHEMERIS_TYPE>0</EPHEMERIS_TYPE><CLASSIFICATION_TYPE>U</CLASSIFICATION_TYPE><NORAD_CAT_ID>25982</NORAD_CAT_ID><ELEMENT_SET_NO>999</ELEMENT_SET_NO><REV_AT_EPOCH>26143</REV_AT_EPOCH><BSTAR>.77508E-3</BSTAR><MEAN_MOTION_DOT>.2034E-4</MEAN_MOTION_DOT><MEAN_MOTION_DDOT>0</MEAN_MOTION_DDOT></tleParameters></data></segment></body></omm>

</ndm>
