ORBCOMM FM24 [-]        
1 25478U 98053D   24022.48874807  .00002201  00000+0  81239-3 0  9997
2 25478  45.0064 169.4385 0002362 188.4364 171.6443 14.35148048323866
ORBCOMM FM25 [-]        
1 25479U 98053E   24022.52333442  .00002361  00000+0  86793-3 0  9995
2 25479  45.0058 167.5142 0004846 203.2792 156.7836 14.35132646324161
ORBCOMM FM26 [-]        
1 25480U 98053F   24022.49045747  .00002156  00000+0  80443-3 0  9999
2 25480  45.0050 161.3578 0006805 221.1884 138.8450 14.34651402324100
ORBCOMM FM27 [+]        
1 25481U 98053G   24022.50980904  .00002266  00000+0  83574-3 0  9995
2 25481  45.0040 167.8390 0000779 204.3885 155.6925 14.35108005324090
ORBCOMM FM28 [-]        
1 25482U 98053H   24023.99225053  .00001954  00000+0  72040-3 0  9996
2 25482  45.0060  99.6844 0005755 255.4464 104.5745 14.35587222324970
ORBCOMM FM30 [-]        
1 25980U 99065A   24023.92522679  .00002057  00000+0  76760-3 0  9998
2 25980  45.0334 340.0209 0007664 329.1464  30.8932 14.34802291261104
ORBCOMM FM31 [-]        
1 25981U 99065B   24024.10030220  .00001926  00000+0  72194-3 0  9997
2 25981  45.0245 332.9714 0004526 345.2951  14.7764 14.34815514260689
ORBCOMM FM32 [+]        
1 25982U 99065C   24023.93497696  .00002034  00000+0  77508-3 0  9997
2 25982  45.0177 346.7726 0006784 348.2910  11.7778 14.33790484261305
